[{"OBJECT_NAME":"THORAD AGENA D DEB","OBJECT_ID":"1970-025CJ","EPOCH":"2026-03-05T05:59:56.525856","MEAN_MOTION":16.05906055,"ECCENTRICITY":0.0011376,"INCLINATION":99.5846,"RA_OF_ASC_NODE":76.8615,"ARG_OF_PERICENTER":181.1558,"MEAN_ANOMALY":178.9691,"EPHEMERIS_TYPE":0,"CLASSIFICATION_TYPE":"U","NORAD_CAT_ID":4735,"ELEMENT_SET_NO":999,"REV_AT_EPOCH":88062,"BSTAR":0.014291,"MEAN_MOTION_DOT":0.06791631,"MEAN_MOTION_DDOT":0.13744},{"OBJECT_NAME":"COSMOS 886 DEB","OBJECT_ID":"1976-126BN","EPOCH":"2026-03-05T10:21:52.276320","MEAN_MOTION":16.19434659,"ECCENTRICITY":0.0017078,"INCLINATION":65.5928,"RA_OF_ASC_NODE":307.6976,"ARG_OF_PERICENTER":206.5599,"MEAN_ANOMALY":153.4711,"EPHEMERIS_TYPE":0,"CLASSIFICATION_TYPE":"U","NORAD_CAT_ID":14501,"ELEMENT_SET_NO":999,"REV_AT_EPOCH":14999,"BSTAR":0.0047049,"MEAN_MOTION_DOT":0.08967905,"MEAN_MOTION_DDOT":6.7923e-6},{"OBJECT_NAME":"COSMOS 1812","OBJECT_ID":"1987-003A","EPOCH":"2026-03-06T03:08:00.778848","MEAN_MOTION":16.49575463,"ECCENTRICITY":0.0011771,"INCLINATION":82.4628,"RA_OF_ASC_NODE":199.5909,"ARG_OF_PERICENTER":272.0058,"MEAN_ANOMALY":87.9898,"EPHEMERIS_TYPE":0,"CLASSIFICATION_TYPE":"U","NORAD_CAT_ID":17295,"ELEMENT_SET_NO":999,"REV_AT_EPOCH":14391,"BSTAR":0.00014059,"MEAN_MOTION_DOT":0.12040831,"MEAN_MOTION_DDOT":-1.2829e-6},{"OBJECT_NAME":"CZ-4 DEB","OBJECT_ID":"1990-081BJ","EPOCH":"2026-03-05T17:31:02.527104","MEAN_MOTION":16.00888233,"ECCENTRICITY":0.00135814,"INCLINATION":98.0793,"RA_OF_ASC_NODE":154.4048,"ARG_OF_PERICENTER":291.9902,"MEAN_ANOMALY":67.9931,"EPHEMERIS_TYPE":0,"CLASSIFICATION_TYPE":"U","NORAD_CAT_ID":20898,"ELEMENT_SET_NO":999,"REV_AT_EPOCH":86752,"BSTAR":0.0085011478,"MEAN_MOTION_DOT":0.03714059,"MEAN_MOTION_DDOT":0.020176163},{"OBJECT_NAME":"CZ-2D DEB","OBJECT_ID":"2005-024J","EPOCH":"2026-03-01T21:43:49.210752","MEAN_MOTION":15.92111318,"ECCENTRICITY":0.0004089,"INCLINATION":97.1482,"RA_OF_ASC_NODE":103.0739,"ARG_OF_PERICENTER":145.2826,"MEAN_ANOMALY":214.8716,"EPHEMERIS_TYPE":0,"CLASSIFICATION_TYPE":"U","NORAD_CAT_ID":31409,"ELEMENT_SET_NO":999,"REV_AT_EPOCH":11718,"BSTAR":0.00072484,"MEAN_MOTION_DOT":0.0023946,"MEAN_MOTION_DDOT":2.3346e-5},{"OBJECT_NAME":"ZIYUAN 3-01 (ZY 3-01)","OBJECT_ID":"2012-001A","EPOCH":"2026-03-05T22:30:46.399392","MEAN_MOTION":15.99614064,"ECCENTRICITY":0.00025343,"INCLINATION":97.1561,"RA_OF_ASC_NODE":139.6315,"ARG_OF_PERICENTER":246.9883,"MEAN_ANOMALY":113.1129,"EPHEMERIS_TYPE":0,"CLASSIFICATION_TYPE":"U","NORAD_CAT_ID":38046,"ELEMENT_SET_NO":999,"REV_AT_EPOCH":78810,"BSTAR":0.0009174143,"MEAN_MOTION_DOT":0.00453899,"MEAN_MOTION_DDOT":9.013835e-5},{"OBJECT_NAME":"HUMSAT-D","OBJECT_ID":"2013-066T","EPOCH":"2026-03-05T22:29:23.480448","MEAN_MOTION":16.05871804,"ECCENTRICITY":0.00069529,"INCLINATION":97.482,"RA_OF_ASC_NODE":77.7785,"ARG_OF_PERICENTER":168.388,"MEAN_ANOMALY":191.7563,"EPHEMERIS_TYPE":0,"CLASSIFICATION_TYPE":"U","NORAD_CAT_ID":39433,"ELEMENT_SET_NO":999,"REV_AT_EPOCH":67086,"BSTAR":0.0020517022,"MEAN_MOTION_DOT":0.01441722,"MEAN_MOTION_DDOT":0.0013110384},{"OBJECT_NAME":"SPACEBEE-7","OBJECT_ID":"2018-099BL","EPOCH":"2026-03-05T17:50:38.582304","MEAN_MOTION":16.1346116,"ECCENTRICITY":0.00086923,"INCLINATION":97.4346,"RA_OF_ASC_NODE":151.4489,"ARG_OF_PERICENTER":276.2587,"MEAN_ANOMALY":83.7708,"EPHEMERIS_TYPE":0,"CLASSIFICATION_TYPE":"U","NORAD_CAT_ID":43816,"ELEMENT_SET_NO":999,"REV_AT_EPOCH":39858,"BSTAR":0.001970915,"MEAN_MOTION_DOT":0.02126202,"MEAN_MOTION_DDOT":0.0048526368},{"OBJECT_NAME":"STARLINK-1298","OBJECT_ID":"2020-019BF","EPOCH":"2026-03-06T00:00:02.000160","MEAN_MOTION":15.94037867,"ECCENTRICITY":0.00067756,"INCLINATION":53.0347,"RA_OF_ASC_NODE":72.808,"ARG_OF_PERICENTER":6.7539,"MEAN_ANOMALY":115.9827,"EPHEMERIS_TYPE":0,"CLASSIFICATION_TYPE":"U","NORAD_CAT_ID":45413,"ELEMENT_SET_NO":999,"REV_AT_EPOCH":602,"BSTAR":0.00071888937,"MEAN_MOTION_DOT":0.00269244,"MEAN_MOTION_DDOT":3.9067253e-5},{"OBJECT_NAME":"STARLINK-1398","OBJECT_ID":"2020-035AU","EPOCH":"2026-03-06T00:00:02.000160","MEAN_MOTION":15.92729988,"ECCENTRICITY":0.00038406,"INCLINATION":53.0363,"RA_OF_ASC_NODE":318.1027,"ARG_OF_PERICENTER":156.7018,"MEAN_ANOMALY":171.7603,"EPHEMERIS_TYPE":0,"CLASSIFICATION_TYPE":"U","NORAD_CAT_ID":45699,"ELEMENT_SET_NO":999,"REV_AT_EPOCH":600,"BSTAR":0.00078974237,"MEAN_MOTION_DOT":0.00275682,"MEAN_MOTION_DDOT":3.9931136e-5},{"OBJECT_NAME":"STARLINK-1484","OBJECT_ID":"2020-038AC","EPOCH":"2026-03-06T00:00:02.000160","MEAN_MOTION":15.99645515,"ECCENTRICITY":0.00065823,"INCLINATION":52.9985,"RA_OF_ASC_NODE":75.6875,"ARG_OF_PERICENTER":49.593,"MEAN_ANOMALY":162.2792,"EPHEMERIS_TYPE":0,"CLASSIFICATION_TYPE":"U","NORAD_CAT_ID":45756,"ELEMENT_SET_NO":999,"REV_AT_EPOCH":596,"BSTAR":0.00089599542,"MEAN_MOTION_DOT":0.00459159,"MEAN_MOTION_DDOT":0.00010151208},{"OBJECT_NAME":"STARLINK-1587","OBJECT_ID":"2020-057AS","EPOCH":"2026-03-06T00:00:02.000160","MEAN_MOTION":15.92991993,"ECCENTRICITY":0.00037805,"INCLINATION":53.0315,"RA_OF_ASC_NODE":235.229,"ARG_OF_PERICENTER":276.1687,"MEAN_ANOMALY":162.111,"EPHEMERIS_TYPE":0,"CLASSIFICATION_TYPE":"U","NORAD_CAT_ID":46157,"ELEMENT_SET_NO":999,"REV_AT_EPOCH":588,"BSTAR":0.0012498645,"MEAN_MOTION_DOT":0.00444156,"MEAN_MOTION_DDOT":8.8072733e-5}]
