THORAD AGENA D DEB      
1 04735U 70025CJ  26064.24995979  .06791631  13744+0  14291-1 0  9994
2 04735  99.5846  76.8615 0011376 181.1558 178.9691 16.05906055880624
COSMOS 886 DEB          
1 14501U 76126BN  26064.43185505  .08967905  67923-5  47049-2 0  9994
2 14501  65.5928 307.6976 0017078 206.5599 153.4711 16.19434659149997
COSMOS 1812             
1 17295U 87003A   26065.13056457  .12040831 -12829-5  14059-3 0  9991
2 17295  82.4628 199.5909 0011771 272.0058  87.9898 16.49575463143916
CZ-4 DEB                
1 20898U 90081BJ  26064.72989036  .03714059  20176-1  85011-2 0  9990
2 20898  98.0793 154.4048 0013581 291.9902  67.9931 16.00888233867523
CZ-2D DEB               
1 31409U 05024J   26060.90543068  .00239460  23346-4  72484-3 0  9991
2 31409  97.1482 103.0739 0004089 145.2826 214.8716 15.92111318117181
ZIYUAN 3-01 (ZY 3-01)   
1 38046U 12001A   26064.93803703  .00453899  90138-4  91741-3 0  9994
2 38046  97.1561 139.6315 0002534 246.9883 113.1129 15.99614064788101
HUMSAT-D                
1 39433U 13066T   26064.93707732  .01441722  13110-2  20517-2 0  9990
2 39433  97.4820  77.7785 0006952 168.3880 191.7563 16.05871804670860
SPACEBEE-7              
1 43816U 18099BL  26064.74350211  .02126202  48526-2  19709-2 0  9990
2 43816  97.4346 151.4489 0008692 276.2587  83.7708 16.13461160398586
STARLINK-1298           
1 45413U 20019BF  26065.00002315  .00269244  39067-4  71889-3 0  9991
2 45413  53.0347  72.8080 0006775   6.7539 115.9827 15.94037867  6022
STARLINK-1398           
1 45699U 20035AU  26065.00002315  .00275682  39931-4  78974-3 0  9990
2 45699  53.0363 318.1027 0003840 156.7018 171.7603 15.92729988  6001
STARLINK-1484           
1 45756U 20038AC  26065.00002315  .00459159  10151-3  89600-3 0  9990
2 45756  52.9985  75.6875 0006582  49.5930 162.2792 15.99645515  5965
STARLINK-1587           
1 46157U 20057AS  26065.00002315  .00444156  88073-4  12499-2 0  9998
2 46157  53.0315 235.2290 0003780 276.1687 162.1110 15.92991993  5880
